OBJECT_NAME,OBJECT_ID,EPOCH,MEAN_MOTION,ECCENTRICITY,INCLINATION,RA_OF_ASC_NODE,ARG_OF_PERICENTER,MEAN_ANOMALY,EPHEMERIS_TYPE,CLASSIFICATION_TYPE,NORAD_CAT_ID,ELEMENT_SET_NO,REV_AT_EPOCH,BSTAR,MEAN_MOTION_DOT,MEAN_MOTION_DDOT
STARLINK-32791,2025-004V,2026-06-28T16:15:44.550144,15.27603084,.00013139,43.0044,312.9928,285.7912,74.2795,0,U,62530,999,8343,.65884412E-3,.17925E-3,0
STARLINK-32785,2025-004W,2026-06-28T18:21:21.420864,15.27583545,.00022171,43.0070,312.7897,253.8858,106.1750,0,U,62531,999,8344,.2873013E-3,.7653E-4,0
STARLINK-11538 [DTC],2025-006A,2026-06-28T18:02:30.494112,15.70860563,.00005631,42.9959,190.0897,72.7042,287.3888,0,U,62554,999,8407,.11910773E-2,.155407E-2,0
STARLINK-11534 [DTC],2025-006B,2026-06-28T07:29:13.176384,15.70949129,.00009021,42.9988,192.8131,191.0232,169.0616,0,U,62555,999,8400,.14986078E-2,.197381E-2,0
STARLINK-11515 [DTC],2025-006C,2026-06-28T22:14:25.433664,15.70853185,.00018374,43.0007,189.7071,260.4733,99.5927,0,U,62556,999,8409,.10385698E-2,.135077E-2,0
STARLINK-11478 [DTC],2025-006D,2026-06-28T23:15:23.932800,15.70910763,.00015165,42.9990,189.1501,283.6140,76.4558,0,U,62557,999,8410,.89407139E-3,.116236E-2,0
STARLINK-11358 [DTC],2025-006E,2026-06-28T07:52:10.470144,15.70834841,.0001163,42.9982,192.9395,231.0176,129.0588,0,U,62558,999,8400,.98720897E-3,.128166E-2,0
STARLINK-11517 [DTC],2025-006F,2026-06-28T11:10:33.933792,15.70901879,.00030591,43.0030,192.2606,273.6031,86.4487,0,U,62559,999,8402,.11319146E-2,.147804E-2,0
STARLINK-11519 [DTC],2025-006G,2026-06-28T22:23:23.119008,15.71089796,.0002776,42.9989,189.7537,294.3492,65.7086,0,U,62560,999,8409,.1251183E-2,.165062E-2,0
STARLINK-11451 [DTC],2025-006H,2026-06-28T12:11:32.320608,15.70910520,.00033867,43.0032,191.7033,266.7720,93.2761,0,U,62561,999,8403,.10739122E-2,.140134E-2,0
STARLINK-11530 [DTC],2025-006J,2026-06-28T22:00:01.999584,15.70846168,.00015041,42.9997,189.8378,255.1430,18.2944,0,U,62562,999,598,-.40903129E-3,-.52616E-3,0
STARLINK-11536 [DTC],2025-006K,2026-06-28T12:19:11.168544,15.70896873,.00028275,43.0031,191.7458,268.0348,92.0196,0,U,62563,999,8403,.11028053E-2,.143889E-2,0
STARLINK-11540 [DTC],2025-006L,2026-06-28T17:24:27.756864,15.70860866,.00006539,42.9988,190.7641,324.5709,35.5115,0,U,62564,999,8406,.10444721E-2,.135902E-2,0
STARLINK-11523 [DTC],2025-006M,2026-06-28T11:25:51.862080,15.70885753,.00020247,42.9995,192.3501,310.6798,49.3894,0,U,62565,999,8402,.12455259E-2,.162855E-2,0
STARLINK-11525 [DTC],2025-006N,2026-06-28T17:55:01.895808,15.70809504,.00020623,43.0029,190.9327,253.4703,106.5938,0,U,62566,999,8406,-.18507663E-3,-.24099E-3,0
STARLINK-32752,2025-006P,2026-06-28T22:11:58.508736,15.27590766,.00008223,42.9989,24.4687,303.8819,56.1955,0,U,62567,999,8187,.48788651E-3,.13192E-3,0
STARLINK-32760,2025-006Q,2026-06-28T22:19:22.055232,15.27590864,.0000992,43.0009,24.4938,266.9045,93.1693,0,U,62568,999,8187,.55677421E-3,.15096E-3,0
STARLINK-32715,2025-006R,2026-06-28T22:32:19.626720,15.27592228,.00008063,43.0014,24.5726,303.2352,56.8423,0,U,62569,999,8187,.92295444E-3,.25232E-3,0
STARLINK-32764,2025-006S,2026-06-28T14:52:38.712000,15.27585666,.00012284,43.0024,26.4713,256.5514,103.5201,0,U,62570,999,8182,.48810495E-3,.13196E-3,0
STARLINK-32773,2025-006T,2026-06-27T23:47:52.852416,15.27584232,.00016208,43.0012,29.4983,278.2616,81.8052,0,U,62571,999,8173,.49997859E-3,.13523E-3,0
STARLINK-32750,2025-006U,2026-06-28T07:12:45.824832,15.27578807,.00008923,43.0035,27.5109,312.1071,47.9705,0,U,62572,999,8178,.31708482E-3,.8473E-4,0
STARLINK-32771,2025-006V,2026-06-28T15:18:20.246112,15.27592784,.00011697,43.0004,25.7409,211.7800,148.2981,0,U,62573,999,8183,.80571336E-3,.21984E-3,0
STARLINK-32766,2025-006W,2026-06-28T22:00:52.215264,15.27594443,.00011791,42.9998,24.4023,282.3623,77.7097,0,U,62574,999,8187,.56454738E-3,.15312E-3,0
CENTISPACE-1 S7,2025-007B,2026-06-28T21:25:57.487872,13.80613760,.00142353,54.9757,251.0553,89.6550,270.6037,0,U,62576,999,7633,.77395868E-4,-.59E-6,0
CENTISPACE-1 S8,2025-007C,2026-06-28T22:49:13.399392,13.80616732,.00153158,54.9843,250.4396,139.8181,220.3910,0,U,62577,999,7635,.78185813E-4,-.58E-6,0
CENTISPACE-1 S9,2025-007D,2026-06-28T20:02:30.854112,13.80613141,.00131097,54.9817,251.5660,98.2330,262.0114,0,U,62578,999,7632,.75765855E-4,-.61E-6,0
CENTISPACE-1 S10,2025-007E,2026-06-28T22:17:47.448960,13.80613735,.00128811,54.9882,250.4194,114.4534,245.7768,0,U,62579,999,7635,.89807811E-4,-.46E-6,0
CENTISPACE-1 S11,2025-007F,2026-06-28T22:38:35.108160,13.80615068,.00125421,54.9769,249.9915,116.2742,243.9504,0,U,62580,999,7635,.84470997E-4,-.52E-6,0
CENTISPACE-1 S12,2025-007G,2026-06-28T19:51:42.475680,13.80612872,.00163149,54.9762,250.6710,144.9917,215.2115,0,U,62581,999,7634,.76842096E-4,-.6E-6,0
CENTISPACE-1 S13,2025-007H,2026-06-28T21:15:19.236384,13.80616199,.00127644,54.9801,250.5829,106.4578,253.7782,0,U,62582,999,7634,.71164974E-4,-.66E-6,0
CENTISPACE-1 S14,2025-007J,2026-06-28T22:28:31.161792,13.80613673,.00128242,54.9836,251.5051,113.0999,247.1310,0,U,62583,999,7633,.79963645E-4,-.56E-6,0
CENTISPACE-1 S15,2025-007K,2026-06-28T22:06:55.277568,13.80615729,.00150513,54.9858,251.5405,98.0209,262.2455,0,U,62584,999,7635,.9545266E-4,-.4E-6,0
CENTISPACE-1 S16,2025-007L,2026-06-28T21:56:39.215328,13.80615237,.00137157,54.9874,250.2849,109.5258,250.7181,0,U,62585,999,7633,.88827624E-4,-.47E-6,0
STARLINK-11547 [DTC],2025-008A,2026-06-28T17:12:27.107424,15.70907643,.00029677,43.0002,177.1378,272.0609,87.9919,0,U,62587,999,8357,.12924768E-2,.169313E-2,0
STARLINK-11185 [DTC],2025-008B,2026-06-28T16:26:35.575872,15.70956300,.00020621,42.9990,176.8814,272.0521,88.0111,0,U,62588,999,8357,.20427545E-2,.271742E-2,0
STARLINK-11513 [DTC],2025-008C,2026-06-28T23:03:23.853600,15.70885217,.00018983,43.0008,175.5188,256.6903,103.3753,0,U,62589,999,8361,.12493516E-2,.163361E-2,0
STARLINK-11397 [DTC],2025-008D,2026-06-28T06:54:17.276544,15.70907211,.00010864,42.9981,179.0501,229.0073,131.0701,0,U,62590,999,8462,.10895236E-2,.142168E-2,0
STARLINK-11420 [DTC],2025-008E,2026-06-28T17:04:48.999936,15.70853927,.00007889,42.9995,177.0928,291.8965,68.1819,0,U,62591,999,8475,.10869668E-2,.141504E-2,0
STARLINK-11415 [DTC],2025-008F,2026-06-28T23:33:58.947264,15.70936815,.00045663,43.0002,175.6882,283.8229,76.2130,0,U,62592,999,8472,.11270767E-2,.147419E-2,0
STARLINK-11413 [DTC],2025-008G,2026-06-28T06:39:10.961280,15.70899222,.00023932,43.0006,179.8594,251.1071,108.9537,0,U,62593,999,8457,.1176909E-2,.15378E-2,0
STARLINK-11416 [DTC],2025-008H,2026-06-29T09:11:20.030208,16.00339142,.0010948,42.9837,163.5504,137.9165,222.2555,0,U,62594,999,8478,.77406E-3,.421377E-2,.83772E-4
STARLINK-11535 [DTC],2025-008J,2026-06-28T23:49:05.213280,15.70917371,.00040964,42.9989,174.8751,283.4880,76.5531,0,U,62595,999,8464,.86303298E-3,.112197E-2,0
STARLINK-11521 [DTC],2025-008L,2026-06-28T22:40:27.757344,15.70875397,.00020484,43.0009,175.3869,260.6535,99.4101,0,U,62597,999,8478,.11478268E-2,.149742E-2,0
STARLINK-11258 [DTC],2025-008M,2026-06-28T22:48:06.532704,15.70866970,.00016975,43.0001,175.4278,260.9254,99.1422,0,U,62598,999,8478,.10236601E-2,.133177E-2,0
STARLINK-11529 [DTC],2025-008N,2026-06-28T22:55:45.058368,15.70879110,.00018111,43.0004,175.4713,258.3310,101.7354,0,U,62599,999,8479,.9903032E-3,.128821E-2,0
STARLINK-32747,2025-008P,2026-06-28T22:21:58.447872,15.27619907,.00011707,43.0012,10.0175,271.4874,88.5844,0,U,62600,999,8257,.62695062E-3,.17051E-3,0
STARLINK-32767,2025-008Q,2026-06-28T21:30:10.977696,15.27593211,.00014444,43.0003,9.7405,260.7860,99.2828,0,U,62601,999,8263,.39530768E-3,.10636E-3,0
STARLINK-32769,2025-008R,2026-06-28T21:35:44.058336,15.27593771,.00012912,43.0028,9.7670,266.5135,93.5569,0,U,62602,999,8263,.39528751E-3,.10636E-3,0
STARLINK-32778,2025-008S,2026-06-28T21:04:29.901504,15.27592115,.00014442,43.0001,10.4739,267.8112,92.2575,0,U,62603,999,8256,.5465639E-3,.14814E-3,0
STARLINK-32710,2025-008T,2026-06-28T21:09:50.211360,15.27593013,.00011961,42.9980,9.6326,276.9933,83.0783,0,U,62604,999,8257,.86050672E-3,.23502E-3,0
STARLINK-32742,2025-008U,2026-06-28T21:15:22.925664,15.27589728,.0001619,42.9997,9.6617,278.4367,81.6301,0,U,62605,999,8262,.10464785E-2,.28655E-3,0
STARLINK-32783,2025-008V,2026-06-28T21:41:17.520000,15.27589068,.00011749,43.0027,9.7996,278.4701,81.6018,0,U,62606,999,8257,.69072235E-3,.18799E-3,0
STARLINK-32784,2025-008W,2026-06-28T22:00:01.999584,15.52083480,.00252315,42.9926,355.5439,293.7022,241.7211,0,U,62607,999,591,.33910185E-2,.218182E-2,0
BUZZER-1,2025-009A,2026-06-28T03:57:49.893120,15.21729088,.00061561,97.3930,257.2201,300.8149,59.2481,0,U,62609,999,8036,.25168777E-3,.5635E-4,0
EDISON-1,2025-009B,2026-06-28T18:02:21.018624,15.31872600,.00039931,97.4011,262.2494,259.6851,100.3940,0,U,62610,999,8072,.37397795E-3,.11438E-3,0
BALKAN-1,2025-009C,2026-06-28T22:55:50.939616,15.25166038,.00051252,97.3927,259.0443,298.6403,61.4319,0,U,62611,999,8055,.2677484E-3,.6645E-4,0
GESAT GEN1,2025-009D,2026-06-28T17:43:02.667648,15.28786347,.00011594,97.4029,261.7175,113.0582,247.0780,0,U,62612,999,8068,.29120427E-3,.8074E-4,0
FLOCK 4G-8,2025-009E,2026-06-28T17:28:04.160352,15.29948838,.00026566,97.4016,261.6846,263.8214,96.2724,0,U,62613,999,8068,.30544541E-3,.8782E-4,0
TRANSPORTER-12 OBJECT G,2025-009G,2026-06-28T22:50:09.243168,15.25922554,.00045788,97.3949,259.7868,288.9521,71.1220,0,U,62615,999,8059,.2318909E-3,.5877E-4,0
INNOCUBE (TUBSAT-31),2025-009H,2026-06-28T22:49:32.513664,15.26658256,.00042826,97.3910,259.8201,294.7995,65.2798,0,U,62616,999,8061,.26471755E-3,.6872E-4,0
SCOT-1 (SCOT),2025-009J,2026-06-28T22:07:20.125344,15.55560100,.00043396,97.3870,268.1477,229.6895,130.3981,0,U,62617,999,8117,.72467114E-3,.49736E-3,0
AE1D,2025-009K,2026-06-28T19:47:47.585184,15.63842011,.00046653,97.3949,270.1929,239.5432,120.5367,0,U,62618,999,8126,.1138833E-2,.107828E-2,0
IRIS-F3,2025-009L,2026-06-28T17:15:10.036224,15.27181142,.00047796,97.4052,260.4699,283.3922,76.6784,0,U,62619,999,8058,.22544836E-3,.5935E-4,0
